NORAD_CAT_ID,OBJECT_NAME,OBJECT_TYPE,EPOCH,MEAN_MOTION,ECCENTRICITY,INCLINATION,RA_OF_ASC_NODE,ARG_OF_PERICENTER,MEAN_ANOMALY,BSTAR,MEAN_MOTION_DOT,MEAN_MOTION_DDOT,TLE_LINE0,TLE_LINE1,TLE_LINE2,SEMIMAJOR_AXIS,PERIOD,APOGEE,PERIGEE,DECAYED
53011.0,STARLINK-4265,PAYLOAD,2023-08-27 09:27:03,15.08837308,0.0001425,53.2178,277.9371,96.494,263.6215,3.4194e-06,-2.34e-06,0.0,0 STARLINK-4265,1 53011U 22076AB  23239.39378813 -.00000234  00000-0  34194-5 0  9994,2 53011  53.2178 277.9371 0001425  96.4940 263.6215 15.08837308 63296,6917.889,95.438,540.739,538.768,0.0
53011.0,STARLINK-4265,PAYLOAD,2023-08-28 01:20:54,15.08840058,0.0001331,53.2173,274.962,96.7251,263.3893,8.3216e-05,1.037e-05,0.0,0 STARLINK-4265,1 53011U 22076AB  23240.05618410  .00001037  00000-0  83216-4 0  9998,2 53011  53.2173 274.9620 0001331  96.7251 263.3893 15.08840058 63867,6917.88,95.438,540.666,538.824,0.0
53011.0,STARLINK-4265,PAYLOAD,2023-08-28 18:50:08,15.0884274,0.0001156,53.2162,271.6919,83.0188,277.0935,4.0232e-05,3.53e-06,0.0,0 STARLINK-4265,1 53011U 22076AB  23240.78482313  .00000353  00000-0  40232-4 0  9990,2 53011  53.2162 271.6919 0001156  83.0188 277.0935 15.08842740 63503,6917.872,95.437,540.537,538.937,0.0
53011.0,STARLINK-4265,PAYLOAD,2023-08-29 09:08:37,15.08835412,0.0001194,53.2166,269.0163,85.7375,274.3754,3.3195e-05,2.4e-06,0.0,0 STARLINK-4265,1 53011U 22076AB  23241.38098939  .00000240  00000-0  33195-4 0  9999,2 53011  53.2166 269.0163 0001194  85.7375 274.3754 15.08835412 64067,6917.894,95.438,540.585,538.933,0.0
53011.0,STARLINK-4265,PAYLOAD,2023-08-30 18:31:43,15.08836514,0.0001271,53.217,262.7718,89.1031,271.0106,6.8423e-06,-1.79e-06,0.0,0 STARLINK-4265,1 53011U 22076AB  23242.77203211 -.00000179  00000-0  68423-5 0  9999,2 53011  53.2170 262.7718 0001271  89.1031 271.0106 15.08836514 63801,6917.891,95.438,540.635,538.877,0.0
53011.0,STARLINK-4265,PAYLOAD,2023-08-31 00:53:16,15.08834242,0.000123,53.2167,261.5815,89.6855,270.4278,4.505e-05,4.29e-06,0.0,0 STARLINK-4265,1 53011U 22076AB  23243.03699283  .00000429  00000-0  45050-4 0  9994,2 53011  53.2167 261.5815 0001230  89.6855 270.4278 15.08834242 64312,6917.898,95.438,540.614,538.912,0.0
53011.0,STARLINK-4265,PAYLOAD,2023-09-01 07:05:35,15.08840045,0.0001294,53.2169,255.931,87.822,272.292,8.1504e-05,1.009e-05,0.0,0 STARLINK-4265,1 53011U 22076AB  23244.29555068  .00001009  00000-0  81504-4 0  9994,2 53011  53.2169 255.9310 0001294  87.8220 272.2920 15.08840045 64500,6917.88,95.438,540.64,538.85,0.0
53011.0,STARLINK-4265,PAYLOAD,2023-09-01 18:13:17,15.08843389,0.00013,53.2169,253.8502,87.7436,272.3705,9.6421e-05,1.247e-05,0.0,0 STARLINK-4265,1 53011U 22076AB  23244.75922734  .00001247  00000-0  96421-4 0  9991,2 53011  53.2169 253.8502 0001300  87.7436 272.3705 15.08843389 64108,6917.87,95.437,540.634,538.836,0.0
53011.0,STARLINK-4265,PAYLOAD,2023-09-02 06:56:22,15.08845911,0.0001493,53.217,251.4716,87.1908,272.9255,7.1972e-05,8.58e-06,0.0,0 STARLINK-4265,1 53011U 22076AB  23245.28914599  .00000858  00000-0  71972-4 0  9991,2 53011  53.2170 251.4716 0001493  87.1908 272.9255 15.08845911 64189,6917.862,95.437,540.76,538.694,0.0
53011.0,STARLINK-4265,PAYLOAD,2023-09-02 18:04:04,15.08843691,0.0001284,53.2154,249.3886,94.318,265.7959,2.147e-05,5.4e-07,0.0,0 STARLINK-4265,1 53011U 22076AB  23245.75282736  .00000054  00000-0  21470-4 0  9990,2 53011  53.2154 249.3886 0001284  94.3180 265.7959 15.08843691 64729,6917.869,95.437,540.622,538.846,0.0
53011.0,STARLINK-4265,PAYLOAD,2023-09-03 11:33:18,15.08845963,0.0001381,53.2162,246.1189,84.6791,275.4359,4.0368e-05,3.55e-06,0.0,0 STARLINK-4265,1 53011U 22076AB  23246.48146427  .00000355  00000-0  40368-4 0  9998,2 53011  53.2162 246.1189 0001381  84.6791 275.4359 15.08845963 64363,6917.862,95.437,540.683,538.772,0.0
53011.0,STARLINK-4265,PAYLOAD,2023-09-04 00:16:24,15.08830477,0.0001175,53.2175,243.7411,81.2508,278.8617,-6.0295e-05,-1.247e-05,0.0,0 STARLINK-4265,1 53011U 22076AB  23247.01139778 -.00001247  00000-0 -60295-4 0  9993,2 53011  53.2175 243.7411 0001175  81.2508 278.8617 15.08830477 64917,6917.909,95.438,540.587,538.962,0.0
53011.0,STARLINK-4265,PAYLOAD,2023-09-04 06:37:57,15.08832071,0.0001354,53.2163,242.5512,86.4799,273.6348,-4.0557e-05,-9.33e-06,0.0,0 STARLINK-4265,1 53011U 22076AB  23247.27635720 -.00000933  00000-0 -40557-4 0  9999,2 53011  53.2163 242.5512 0001354  86.4799 273.6348 15.08832071 64489,6917.905,95.438,540.706,538.833,0.0
53011.0,STARLINK-4265,PAYLOAD,2023-09-04 16:10:15,15.0883403,0.0001385,53.2165,240.7653,90.7235,269.3916,6.152e-06,-1.9e-06,0.0,0 STARLINK-4265,1 53011U 22076AB  23247.67379580 -.00000190  00000-0  61520-5 0  9990,2 53011  53.2165 240.7653 0001385  90.7235 269.3916 15.08834030 65014,6917.899,95.438,540.722,538.806,0.0
53011.0,STARLINK-4265,PAYLOAD,2023-09-05 00:07:11,15.08835481,0.0001282,53.2164,239.2779,92.9947,267.1192,4.0326e-05,3.54e-06,0.0,0 STARLINK-4265,1 53011U 22076AB  23248.00499451  .00000354  00000-0  40326-4 0  9999,2 53011  53.2164 239.2779 0001282  92.9947 267.1192 15.08835481 64590,6917.894,95.438,540.646,538.872,0.0
53011.0,STARLINK-4265,PAYLOAD,2023-09-05 23:57:58,15.08834768,0.0001277,53.2162,234.8165,93.6607,266.4531,8.4889e-05,1.063e-05,0.0,0 STARLINK-4265,1 53011U 22076AB  23248.99859695  .00001063  00000-0  84889-4 0  9997,2 53011  53.2162 234.8165 0001277  93.6607 266.4531 15.08834768 65219,6917.896,95.438,540.645,538.878,0.0
53011.0,STARLINK-4265,PAYLOAD,2023-09-06 06:19:31,15.08834175,0.0001304,53.2162,233.6281,90.7137,269.4005,8.1473e-05,1.009e-05,0.0,0 STARLINK-4265,1 53011U 22076AB  23249.26355893  .00001009  00000-0  81473-4 0  9995,2 53011  53.2162 233.6281 0001304  90.7137 269.4005 15.08834175 64784,6917.898,95.438,540.665,538.861,0.0
53011.0,STARLINK-4265,PAYLOAD,2023-09-06 15:51:50,15.08835647,0.0001298,53.2161,231.8438,90.5331,269.581,6.3546e-05,7.23e-06,0.0,0 STARLINK-4265,1 53011U 22076AB  23249.66099983  .00000723  00000-0  63546-4 0  9997,2 53011  53.2161 231.8438 0001298  90.5331 269.5810 15.08835647 64840,6917.894,95.438,540.657,538.861,0.0
53011.0,STARLINK-4265,PAYLOAD,2023-09-07 07:45:42,15.08833511,0.000141,53.2173,228.8711,93.74,266.3753,-1.7869e-05,-5.72e-06,0.0,0 STARLINK-4265,1 53011U 22076AB  23250.32340653 -.00000572  00000-0 -17869-4 0  9996,2 53011  53.2173 228.8711 0001410  93.7400 266.3753 15.08833511 65414,6917.9,95.438,540.741,538.79,0.0
53011.0,STARLINK-4265,PAYLOAD,2023-09-08 02:50:19,15.08844939,0.0001303,53.2171,225.3022,92.844,267.2702,0.00010179,1.333e-05,0.0,0 STARLINK-4265,1 53011U 22076AB  23251.11827681  .00001333  00000-0  10179-3 0  9995,2 53011  53.2171 225.3022 0001303  92.8440 267.2702 15.08844939 65537,6917.865,95.437,540.632,538.829,0.0
53011.0,STARLINK-4265,PAYLOAD,2023-09-08 06:01:05,15.08846651,0.0001343,53.2169,224.7075,92.4505,267.664,0.00011491,1.542e-05,0.0,0 STARLINK-4265,1 53011U 22076AB  23251.25075528  .00001542  00000-0  11491-3 0  9995,2 53011  53.2169 224.7075 0001343  92.4505 267.6640 15.08846651 65085,6917.86,95.437,540.654,538.796,0.0
53011.0,STARLINK-4265,PAYLOAD,2023-09-08 15:33:24,15.08842931,0.0001371,53.2171,222.9227,89.1635,270.9514,7.9861e-05,9.83e-06,0.0,0 STARLINK-4265,1 53011U 22076AB  23251.64819813  .00000983  00000-0  79861-4 0  9995,2 53011  53.2171 222.9227 0001371  89.1635 270.9514 15.08842931 65146,6917.871,95.437,540.685,538.788,0.0
53011.0,STARLINK-4265,PAYLOAD,2023-09-09 02:41:06,15.08839825,0.0001341,53.2169,220.8413,91.3507,268.7639,0.00011423,1.531e-05,0.0,0 STARLINK-4265,1 53011U 22076AB  23252.11187943  .00001531  00000-0  11423-3 0  9999,2 53011  53.2169 220.8413 0001341  91.3507 268.7639 15.08839825 65687,6917.881,95.438,540.674,538.818,0.0
53011.0,STARLINK-4265,PAYLOAD,2023-09-09 07:27:15,15.08846853,0.0001364,53.2169,219.9487,92.8476,267.2673,8.9594e-05,1.139e-05,0.0,0 STARLINK-4265,1 53011U 22076AB  23252.31059576  .00001139  00000-0  89594-4 0  9990,2 53011  53.2169 219.9487 0001364  92.8476 267.2673 15.08846853 65246,6917.859,95.437,540.668,538.781,0.0
53011.0,STARLINK-4265,PAYLOAD,2023-09-10 07:18:02,15.08842461,0.0001338,53.2177,215.4868,106.8511,253.2628,5.0339e-06,-2.08e-06,0.0,0 STARLINK-4265,1 53011U 22076AB  23253.30419917 -.00000208  00000-0  50339-5 0  9992,2 53011  53.2177 215.4868 0001338 106.8511 253.2628 15.08842461 65860,6917.873,95.437,540.663,538.812,0.0
53011.0,STARLINK-4265,PAYLOAD,2023-09-11 07:08:49,15.08844741,0.0001386,53.2176,211.0266,99.9958,260.119,1.1527e-05,-1.04e-06,0.0,0 STARLINK-4265,1 53011U 22076AB  23254.29779831 -.00000104  00000-0  11527-4 0  9995,2 53011  53.2176 211.0266 0001386  99.9958 260.1190 15.08844741 65542,6917.866,95.437,540.69,538.772,0.0
53011.0,STARLINK-4265,PAYLOAD,2023-09-12 02:13:27,15.08838079,0.0001392,53.2177,207.4581,93.214,266.9011,6.5097e-05,7.48e-06,0.0,0 STARLINK-4265,1 53011U 22076AB  23255.09268186  .00000748  00000-0  65097-4 0  9994,2 53011  53.2177 207.4581 0001392  93.2140 266.9011 15.08838079 66138,6917.886,95.438,540.714,538.788,0.0
53011.0,STARLINK-4265,PAYLOAD,2023-09-12 06:59:36,15.08843508,0.0001305,53.2178,206.5669,89.5673,270.5469,8.2725e-05,1.029e-05,0.0,0 STARLINK-4265,1 53011U 22076AB  23255.29139824  .00001029  00000-0  82725-4 0  9992,2 53011  53.2178 206.5669 0001305  89.5673 270.5469 15.08843508 65690,6917.87,95.437,540.637,538.832,0.0
53011.0,STARLINK-4265,PAYLOAD,2023-09-13 03:39:37,15.08845845,0.0001238,53.217,202.7028,85.0156,275.0977,9.1276e-05,1.165e-05,0.0,0 STARLINK-4265,1 53011U 22076AB  23256.15251834  .00001165  00000-0  91276-4 0  9996,2 53011  53.2170 202.7028 0001238  85.0156 275.0977 15.08845845 66298,6917.863,95.437,540.584,538.871,0.0
53011.0,STARLINK-4265,PAYLOAD,2023-09-14 01:55:02,15.08818177,0.0001233,53.2165,198.5421,102.8039,257.3091,0.00028867,4.307e-05,0.0,0 STARLINK-4265,1 53011U 22076AB  23257.07988846  .00004307  00000-0  28867-3 0  9994,2 53011  53.2165 198.5421 0001233 102.8039 257.3091 15.08818177 66438,6917.947,95.439,540.665,538.959,0.0
